CCSDS_OMM_VERS = 2.0
CREATION_DATE  = 
ORIGINATOR     = 

OBJECT_NAME    = STARLINK-37608
OBJECT_ID      = 2026-101N
CENTER_NAME    = EARTH
REF_FRAME      = TEME
TIME_SYSTEM    = UTC
MEAN_ELEMENT_THEORY = SGP/SGP4

EPOCH          = 2026-05-23T11:45:29.117376
MEAN_MOTION    = 15.75218069
ECCENTRICITY   = .0001439
INCLINATION    = 97.2840
RA_OF_ASC_NODE = 358.1742
ARG_OF_PERICENTER = 96.5743
MEAN_ANOMALY   = 263.5686

EPHEMERIS_TYPE = 0
CLASSIFICATION_TYPE = U
NORAD_CAT_ID   = 69037
ELEMENT_SET_NO = 999
REV_AT_EPOCH   = 275
BSTAR          = .73956E-3
MEAN_MOTION_DOT = .11177E-2
MEAN_MOTION_DDOT = 0

CCSDS_OMM_VERS = 2.0
CREATION_DATE  = 
ORIGINATOR     = 

OBJECT_NAME    = STARLINK-37466
OBJECT_ID      = 2026-101P
CENTER_NAME    = EARTH
REF_FRAME      = TEME
TIME_SYSTEM    = UTC
MEAN_ELEMENT_THEORY = SGP/SGP4

EPOCH          = 2026-05-23T12:00:04.000320
MEAN_MOTION    = 15.69910988
ECCENTRICITY   = .0001612
INCLINATION    = 97.2842
RA_OF_ASC_NODE = 358.1823
ARG_OF_PERICENTER = 71.1048
MEAN_ANOMALY   = 340.6337

EPHEMERIS_TYPE = 0
CLASSIFICATION_TYPE = U
NORAD_CAT_ID   = 69038
ELEMENT_SET_NO = 999
REV_AT_EPOCH   = 399
BSTAR          = -.17921E-1
MEAN_MOTION_DOT = -.186357E-1
MEAN_MOTION_DDOT = 0

CCSDS_OMM_VERS = 2.0
CREATION_DATE  = 
ORIGINATOR     = 

OBJECT_NAME    = STARLINK-37612
OBJECT_ID      = 2026-101Q
CENTER_NAME    = EARTH
REF_FRAME      = TEME
TIME_SYSTEM    = UTC
MEAN_ELEMENT_THEORY = SGP/SGP4

EPOCH          = 2026-05-23T11:40:54.781824
MEAN_MOTION    = 15.75229653
ECCENTRICITY   = .0001229
INCLINATION    = 97.2841
RA_OF_ASC_NODE = 358.1787
ARG_OF_PERICENTER = 95.6990
MEAN_ANOMALY   = 264.4415

EPHEMERIS_TYPE = 0
CLASSIFICATION_TYPE = U
NORAD_CAT_ID   = 69039
ELEMENT_SET_NO = 999
REV_AT_EPOCH   = 275
BSTAR          = .10929E-2
MEAN_MOTION_DOT = .166379E-2
MEAN_MOTION_DDOT = 0

CCSDS_OMM_VERS = 2.0
CREATION_DATE  = 
ORIGINATOR     = 

OBJECT_NAME    = STARLINK-37616
OBJECT_ID      = 2026-101R
CENTER_NAME    = EARTH
REF_FRAME      = TEME
TIME_SYSTEM    = UTC
MEAN_ELEMENT_THEORY = SGP/SGP4

EPOCH          = 2026-05-23T11:41:25.299168
MEAN_MOTION    = 15.75228633
ECCENTRICITY   = .0001479
INCLINATION    = 97.2842
RA_OF_ASC_NODE = 358.1779
ARG_OF_PERICENTER = 97.8531
MEAN_ANOMALY   = 262.2903

EPHEMERIS_TYPE = 0
CLASSIFICATION_TYPE = U
NORAD_CAT_ID   = 69040
ELEMENT_SET_NO = 999
REV_AT_EPOCH   = 275
BSTAR          = .11052E-2
MEAN_MOTION_DOT = .168283E-2
MEAN_MOTION_DDOT = 0

CCSDS_OMM_VERS = 2.0
CREATION_DATE  = 
ORIGINATOR     = 

OBJECT_NAME    = STARLINK-37614
OBJECT_ID      = 2026-101S
CENTER_NAME    = EARTH
REF_FRAME      = TEME
TIME_SYSTEM    = UTC
MEAN_ELEMENT_THEORY = SGP/SGP4

EPOCH          = 2026-05-23T13:10:51.973824
MEAN_MOTION    = 15.75209259
ECCENTRICITY   = .0001604
INCLINATION    = 97.2845
RA_OF_ASC_NODE = 358.2469
ARG_OF_PERICENTER = 96.7565
MEAN_ANOMALY   = 263.3882

EPHEMERIS_TYPE = 0
CLASSIFICATION_TYPE = U
NORAD_CAT_ID   = 69041
ELEMENT_SET_NO = 999
REV_AT_EPOCH   = 276
BSTAR          = .48036E-3
MEAN_MOTION_DOT = .72188E-3
MEAN_MOTION_DDOT = 0

CCSDS_OMM_VERS = 2.0
CREATION_DATE  = 
ORIGINATOR     = 

OBJECT_NAME    = STARLINK-37644
OBJECT_ID      = 2026-101T
CENTER_NAME    = EARTH
REF_FRAME      = TEME
TIME_SYSTEM    = UTC
MEAN_ELEMENT_THEORY = SGP/SGP4

EPOCH          = 2026-05-23T11:36:50.758848
MEAN_MOTION    = 15.75201096
ECCENTRICITY   = .0001273
INCLINATION    = 97.2848
RA_OF_ASC_NODE = 358.1824
ARG_OF_PERICENTER = 88.2515
MEAN_ANOMALY   = 271.8896

EPHEMERIS_TYPE = 0
CLASSIFICATION_TYPE = U
NORAD_CAT_ID   = 69042
ELEMENT_SET_NO = 999
REV_AT_EPOCH   = 275
BSTAR          = .47192E-3
MEAN_MOTION_DOT = .7088E-3
MEAN_MOTION_DDOT = 0

CCSDS_OMM_VERS = 2.0
CREATION_DATE  = 
ORIGINATOR     = 

OBJECT_NAME    = STARLINK-37571
OBJECT_ID      = 2026-101U
CENTER_NAME    = EARTH
REF_FRAME      = TEME
TIME_SYSTEM    = UTC
MEAN_ELEMENT_THEORY = SGP/SGP4

EPOCH          = 2026-05-23T11:37:51.744288
MEAN_MOTION    = 15.75260098
ECCENTRICITY   = .0001256
INCLINATION    = 97.2847
RA_OF_ASC_NODE = 358.1816
ARG_OF_PERICENTER = 97.2693
MEAN_ANOMALY   = 262.8715

EPHEMERIS_TYPE = 0
CLASSIFICATION_TYPE = U
NORAD_CAT_ID   = 69043
ELEMENT_SET_NO = 999
REV_AT_EPOCH   = 275
BSTAR          = .14815E-2
MEAN_MOTION_DOT = .227524E-2
MEAN_MOTION_DDOT = 0

CCSDS_OMM_VERS = 2.0
CREATION_DATE  = 
ORIGINATOR     = 

OBJECT_NAME    = STARLINK-37664
OBJECT_ID      = 2026-101V
CENTER_NAME    = EARTH
REF_FRAME      = TEME
TIME_SYSTEM    = UTC
MEAN_ELEMENT_THEORY = SGP/SGP4

EPOCH          = 2026-05-23T12:00:04.000320
MEAN_MOTION    = 15.68801009
ECCENTRICITY   = .0001667
INCLINATION    = 97.2847
RA_OF_ASC_NODE = 358.1952
ARG_OF_PERICENTER = 79.0433
MEAN_ANOMALY   = 1.1997

EPHEMERIS_TYPE = 0
CLASSIFICATION_TYPE = U
NORAD_CAT_ID   = 69044
ELEMENT_SET_NO = 999
REV_AT_EPOCH   = 396
BSTAR          = -.18722E-1
MEAN_MOTION_DOT = -.1896729E-1
MEAN_MOTION_DDOT = 0

CCSDS_OMM_VERS = 2.0
CREATION_DATE  = 
ORIGINATOR     = 

OBJECT_NAME    = STARLINK-37667
OBJECT_ID      = 2026-101W
CENTER_NAME    = EARTH
REF_FRAME      = TEME
TIME_SYSTEM    = UTC
MEAN_ELEMENT_THEORY = SGP/SGP4

EPOCH          = 2026-05-23T13:06:17.733312
MEAN_MOTION    = 15.75189344
ECCENTRICITY   = .000072
INCLINATION    = 97.2845
RA_OF_ASC_NODE = 358.2511
ARG_OF_PERICENTER = 67.4421
MEAN_ANOMALY   = 292.6920

EPHEMERIS_TYPE = 0
CLASSIFICATION_TYPE = U
NORAD_CAT_ID   = 69045
ELEMENT_SET_NO = 999
REV_AT_EPOCH   = 276
BSTAR          = .38436E-3
MEAN_MOTION_DOT = .57584E-3
MEAN_MOTION_DDOT = 0

CCSDS_OMM_VERS = 2.0
CREATION_DATE  = 
ORIGINATOR     = 

OBJECT_NAME    = STARLINK-37666
OBJECT_ID      = 2026-101X
CENTER_NAME    = EARTH
REF_FRAME      = TEME
TIME_SYSTEM    = UTC
MEAN_ELEMENT_THEORY = SGP/SGP4

EPOCH          = 2026-05-23T13:03:14.935968
MEAN_MOTION    = 15.75208611
ECCENTRICITY   = .0000981
INCLINATION    = 97.2844
RA_OF_ASC_NODE = 358.2541
ARG_OF_PERICENTER = 83.2331
MEAN_ANOMALY   = 276.9046

EPHEMERIS_TYPE = 0
CLASSIFICATION_TYPE = U
NORAD_CAT_ID   = 69046
ELEMENT_SET_NO = 999
REV_AT_EPOCH   = 276
BSTAR          = .93795E-3
MEAN_MOTION_DOT = .142238E-2
MEAN_MOTION_DDOT = 0

CCSDS_OMM_VERS = 2.0
CREATION_DATE  = 
ORIGINATOR     = 

OBJECT_NAME    = STARLINK-37576
OBJECT_ID      = 2026-101Y
CENTER_NAME    = EARTH
REF_FRAME      = TEME
TIME_SYSTEM    = UTC
MEAN_ELEMENT_THEORY = SGP/SGP4

EPOCH          = 2026-05-23T13:00:42.496128
MEAN_MOTION    = 15.75215364
ECCENTRICITY   = .0001084
INCLINATION    = 97.2845
RA_OF_ASC_NODE = 358.2575
ARG_OF_PERICENTER = 71.9149
MEAN_ANOMALY   = 288.2234

EPHEMERIS_TYPE = 0
CLASSIFICATION_TYPE = U
NORAD_CAT_ID   = 69047
ELEMENT_SET_NO = 999
REV_AT_EPOCH   = 276
BSTAR          = .10163E-2
MEAN_MOTION_DOT = .1544E-2
MEAN_MOTION_DDOT = 0

CCSDS_OMM_VERS = 2.0
CREATION_DATE  = 
ORIGINATOR     = 

OBJECT_NAME    = STARLINK-37663
OBJECT_ID      = 2026-101Z
CENTER_NAME    = EARTH
REF_FRAME      = TEME
TIME_SYSTEM    = UTC
MEAN_ELEMENT_THEORY = SGP/SGP4

EPOCH          = 2026-05-23T13:03:45.326304
MEAN_MOTION    = 15.75229847
ECCENTRICITY   = .0001745
INCLINATION    = 97.2843
RA_OF_ASC_NODE = 358.2531
ARG_OF_PERICENTER = 98.3172
MEAN_ANOMALY   = 261.8291

EPHEMERIS_TYPE = 0
CLASSIFICATION_TYPE = U
NORAD_CAT_ID   = 69048
ELEMENT_SET_NO = 999
REV_AT_EPOCH   = 276
BSTAR          = .11102E-2
MEAN_MOTION_DOT = .16907E-2
MEAN_MOTION_DDOT = 0

