STARLINK-37608          
1 69037U 26101N   26143.48992034  .00111770  00000+0  73956-3 0  9999
2 69037  97.2840 358.1742 0001439  96.5743 263.5686 15.75218069  2752
STARLINK-37466          
1 69038U 26101P   26143.50004630 -.01863570  00000+0 -17921-1 0  9992
2 69038  97.2842 358.1823 0001612  71.1048 340.6337 15.69910988  3994
STARLINK-37612          
1 69039U 26101Q   26143.48674516  .00166379  00000+0  10929-2 0  9998
2 69039  97.2841 358.1787 0001229  95.6990 264.4415 15.75229653  2756
STARLINK-37616          
1 69040U 26101R   26143.48709837  .00168283  00000+0  11052-2 0  9999
2 69040  97.2842 358.1779 0001479  97.8531 262.2903 15.75228633  2757
STARLINK-37614          
1 69041U 26101S   26143.54921266  .00072188  00000+0  48036-3 0  9990
2 69041  97.2845 358.2469 0001604  96.7565 263.3882 15.75209259  2765
STARLINK-37644          
1 69042U 26101T   26143.48392082  .00070880  00000+0  47192-3 0  9991
2 69042  97.2848 358.1824 0001273  88.2515 271.8896 15.75201096  2755
STARLINK-37571          
1 69043U 26101U   26143.48462667  .00227524  00000+0  14815-2 0  9993
2 69043  97.2847 358.1816 0001256  97.2693 262.8715 15.75260098  2751
STARLINK-37664          
1 69044U 26101V   26143.50004630 -.01896729  00000+0 -18722-1 0  9991
2 69044  97.2847 358.1952 0001667  79.0433   1.1997 15.68801009  3964
STARLINK-37667          
1 69045U 26101W   26143.54603858  .00057584  00000+0  38436-3 0  9994
2 69045  97.2845 358.2511 0000720  67.4421 292.6920 15.75189344  2761
STARLINK-37666          
1 69046U 26101X   26143.54392287  .00142238  00000+0  93795-3 0  9996
2 69046  97.2844 358.2541 0000981  83.2331 276.9046 15.75208611  2762
STARLINK-37576          
1 69047U 26101Y   26143.54215852  .00154400  00000+0  10163-2 0  9990
2 69047  97.2845 358.2575 0001084  71.9149 288.2234 15.75215364  2765
STARLINK-37663          
1 69048U 26101Z   26143.54427461  .00169070  00000+0  11102-2 0  9995
2 69048  97.2843 358.2531 0001745  98.3172 261.8291 15.75229847  2760
